start=new Date('2021-11-15T00:00:00.000Z').valueOf();
sats=[{"PERIAPSIS":"545.959","EPOCH":"2021-11-14T21:50:37.487904","ELEMENT_SET_NO":"999","FILE":"3215179","DECAY_DATE":null,"COUNTRY_CODE":"US","MEAN_ELEMENT_THEORY":"SGP4","TLE_LINE1":"1 48036U 21024BM  21318.91015611 -.00000556  00000-0 -18427-4 0  9993","INCLINATION":"53.0546","MEAN_ANOMALY":"285.2989","OBJECT_NAME":"STARLINK-2295","NORAD_CAT_ID":"48036","BSTAR":"-0.00001842700000","CLASSIFICATION_TYPE":"U","TIME_SYSTEM":"UTC","OBJECT_TYPE":"PAYLOAD","ECCENTRICITY":"0.00018540","CENTER_NAME":"EARTH","RA_OF_ASC_NODE":"205.5719","MEAN_MOTION_DOT":"-0.00000556","GP_ID":"189773290","SEMIMAJOR_AXIS":"6925.378","REF_FRAME":"TEME","MEAN_MOTION_DDOT":"0.0000000000000","RCS_SIZE":"LARGE","OBJECT_ID":"2021-024BM","MEAN_MOTION":"15.06390267","EPHEMERIS_TYPE":"0","TLE_LINE2":"2 48036  53.0546 205.5719 0001854  74.8204 285.2989 15.06390267 37123","APOAPSIS":"548.527","SITE":"AFETR","PERIOD":"95.593","LAUNCH_DATE":"2021-03-24","ARG_OF_PERICENTER":"74.8204","REV_AT_EPOCH":"3712"},{"REF_FRAME":"TEME","MEAN_MOTION_DDOT":"0.0000000000000","EPHEMERIS_TYPE":"0","RCS_SIZE":"LARGE","MEAN_MOTION":"15.06389866","OBJECT_ID":"2021-027A","RA_OF_ASC_NODE":"332.7334","MEAN_MOTION_DOT":"0.00000485","GP_ID":"189747264","CENTER_NAME":"EARTH","SEMIMAJOR_AXIS":"6925.380","LAUNCH_DATE":"2021-04-07","PERIOD":"95.593","REV_AT_EPOCH":"3588","ARG_OF_PERICENTER":"42.2951","TLE_LINE2":"2 48092  53.0530 332.7334 0001823  42.2951 317.8178 15.06389866 35884","APOAPSIS":"548.507","SITE":"AFETR","ELEMENT_SET_NO":"999","COUNTRY_CODE":"US","MEAN_ELEMENT_THEORY":"SGP4","FILE":"3214995","DECAY_DATE":null,"EPOCH":"2021-11-14T10:10:37.277184","PERIAPSIS":"545.982","CLASSIFICATION_TYPE":"U","BSTAR":"0.00005144900000","NORAD_CAT_ID":"48092","ECCENTRICITY":"0.00018230","OBJECT_TYPE":"PAYLOAD","TIME_SYSTEM":"UTC","TLE_LINE1":"1 48092U 21027A   21318.42404256  .00000485  00000-0  51449-4 0  9991","OBJECT_NAME":"STARLINK-2048","MEAN_ANOMALY":"317.8178","INCLINATION":"53.0530"},{"ARG_OF_PERICENTER":"70.0846","REV_AT_EPOCH":"3505","PERIOD":"95.593","LAUNCH_DATE":"2021-04-07","SITE":"AFETR","APOAPSIS":"548.121","TLE_LINE2":"2 48093  53.0575  35.5003 0001251  70.0846 290.0278 15.06386755 35058","OBJECT_ID":"2021-027B","MEAN_MOTION":"15.06386755","RCS_SIZE":"LARGE","EPHEMERIS_TYPE":"0","MEAN_MOTION_DDOT":"0.0000000000000","REF_FRAME":"TEME","SEMIMAJOR_AXIS":"6925.389","CENTER_NAME":"EARTH","GP_ID":"189775048","MEAN_MOTION_DOT":"-0.00000614","RA_OF_ASC_NODE":"35.5003","TIME_SYSTEM":"UTC","OBJECT_TYPE":"PAYLOAD","ECCENTRICITY":"0.00012510","NORAD_CAT_ID":"48093","BSTAR":"-0.00002236900000","CLASSIFICATION_TYPE":"U","INCLINATION":"53.0575","MEAN_ANOMALY":"290.0278","OBJECT_NAME":"STARLINK-2404","TLE_LINE1":"1 48093U 21027B   21318.92487725 -.00000614  00000-0 -22369-4 0  9994","DECAY_DATE":null,"FILE":"3215179","COUNTRY_CODE":"US","MEAN_ELEMENT_THEORY":"SGP4","ELEMENT_SET_NO":"999","PERIAPSIS":"546.388","EPOCH":"2021-11-14T22:11:49.394400"},{"SITE":"AFETR","TLE_LINE2":"2 48094  53.0574  46.2327 0001298  82.8821 277.2315 15.06401085 34895","APOAPSIS":"548.109","REV_AT_EPOCH":"3489","ARG_OF_PERICENTER":"82.8821","LAUNCH_DATE":"2021-04-07","PERIOD":"95.592","SEMIMAJOR_AXIS":"6925.345","RA_OF_ASC_NODE":"46.2327","MEAN_MOTION_DOT":"0.00001240","GP_ID":"189773796","CENTER_NAME":"EARTH","EPHEMERIS_TYPE":"0","RCS_SIZE":"LARGE","OBJECT_ID":"2021-027C","MEAN_MOTION":"15.06401085","REF_FRAME":"TEME","MEAN_MOTION_DDOT":"0.0000000000000","OBJECT_NAME":"STARLINK-2412","MEAN_ANOMALY":"277.2315","INCLINATION":"53.0574","TLE_LINE1":"1 48094U 21027C   21318.76271393  .00001240  00000-0  10210-3 0  9994","ECCENTRICITY":"0.00012980","OBJECT_TYPE":"PAYLOAD","TIME_SYSTEM":"UTC","BSTAR":"0.00010210000000","CLASSIFICATION_TYPE":"U","NORAD_CAT_ID":"48094","EPOCH":"2021-11-14T18:18:18.483552","PERIAPSIS":"546.311","MEAN_ELEMENT_THEORY":"SGP4","COUNTRY_CODE":"US","FILE":"3215179","DECAY_DATE":null,"ELEMENT_SET_NO":"999"},{"PERIAPSIS":"546.494","EPOCH":"2021-11-14T10:31:13.376928","FILE":"3215179","DECAY_DATE":null,"COUNTRY_CODE":"US","MEAN_ELEMENT_THEORY":"SGP4","ELEMENT_SET_NO":"999","INCLINATION":"53.0565","MEAN_ANOMALY":"289.0546","OBJECT_NAME":"STARLINK-2414","TLE_LINE1":"1 48095U 21027D   21318.43834927 -.00000597  00000-0 -21174-4 0  9995","TIME_SYSTEM":"UTC","ECCENTRICITY":"0.00010990","OBJECT_TYPE":"PAYLOAD","NORAD_CAT_ID":"48095","BSTAR":"-0.00002117400000","CLASSIFICATION_TYPE":"U","SEMIMAJOR_AXIS":"6925.390","CENTER_NAME":"EARTH","MEAN_MOTION_DOT":"-0.00000597","RA_OF_ASC_NODE":"47.6947","GP_ID":"189774046","RCS_SIZE":"LARGE","OBJECT_ID":"2021-027D","MEAN_MOTION":"15.06386546","EPHEMERIS_TYPE":"0","REF_FRAME":"TEME","MEAN_MOTION_DDOT":"0.0000000000000","SITE":"AFETR","TLE_LINE2":"2 48095  53.0565  47.6947 0001099  71.0562 289.0546 15.06386546 34857","APOAPSIS":"548.016","ARG_OF_PERICENTER":"71.0562","REV_AT_EPOCH":"3485","PERIOD":"95.593","LAUNCH_DATE":"2021-04-07"},{"TLE_LINE1":"1 48096U 21027E   21318.67793183  .00000251  00000-0  35720-4 0  9997","OBJECT_NAME":"STARLINK-2417","INCLINATION":"53.0567","MEAN_ANOMALY":"281.6598","BSTAR":"0.00003572000000","CLASSIFICATION_TYPE":"U","NORAD_CAT_ID":"48096","OBJECT_TYPE":"PAYLOAD","ECCENTRICITY":"0.00012930","TIME_SYSTEM":"UTC","EPOCH":"2021-11-14T16:16:13.310112","PERIAPSIS":"546.332","ELEMENT_SET_NO":"999","COUNTRY_CODE":"US","MEAN_ELEMENT_THEORY":"SGP4","DECAY_DATE":null,"FILE":"3215179","TLE_LINE2":"2 48096  53.0567  46.6199 0001293  78.4536 281.6598 15.06395575 34875","APOAPSIS":"548.123","SITE":"AFETR","LAUNCH_DATE":"2021-04-07","PERIOD":"95.592","REV_AT_EPOCH":"3487","ARG_OF_PERICENTER":"78.4536","GP_ID":"189774798","MEAN_MOTION_DOT":"0.00000251","RA_OF_ASC_NODE":"46.6199","CENTER_NAME":"EARTH","SEMIMAJOR_AXIS":"6925.362","MEAN_MOTION_DDOT":"0.0000000000000","REF_FRAME":"TEME","EPHEMERIS_TYPE":"0","MEAN_MOTION":"15.06395575","OBJECT_ID":"2021-027E","RCS_SIZE":"LARGE"},{"TLE_LINE1":"1 48097U 21027F   21318.92306809 -.00001099  00000-0 -54927-4 0  9994","INCLINATION":"53.0571","MEAN_ANOMALY":"303.5573","OBJECT_NAME":"STARLINK-2418","NORAD_CAT_ID":"48097","CLASSIFICATION_TYPE":"U","BSTAR":"-0.00005492700000","TIME_SYSTEM":"UTC","ECCENTRICITY":"0.00014570","OBJECT_TYPE":"PAYLOAD","PERIAPSIS":"546.239","EPOCH":"2021-11-14T22:09:13.082976","ELEMENT_SET_NO":"999","DECAY_DATE":null,"FILE":"3215179","MEAN_ELEMENT_THEORY":"SGP4","COUNTRY_CODE":"US","TLE_LINE2":"2 48097  53.0571  25.5059 0001457  56.5555 303.5573 15.06388819 35198","APOAPSIS":"548.257","SITE":"AFETR","PERIOD":"95.593","LAUNCH_DATE":"2021-04-07","ARG_OF_PERICENTER":"56.5555","REV_AT_EPOCH":"3519","CENTER_NAME":"EARTH","GP_ID":"189774549","MEAN_MOTION_DOT":"-0.00001099","RA_OF_ASC_NODE":"25.5059","SEMIMAJOR_AXIS":"6925.383","MEAN_MOTION_DDOT":"0.0000000000000","REF_FRAME":"TEME","OBJECT_ID":"2021-027F","MEAN_MOTION":"15.06388819","RCS_SIZE":"LARGE","EPHEMERIS_TYPE":"0"},{"COUNTRY_CODE":"US","MEAN_ELEMENT_THEORY":"SGP4","FILE":"3215179","DECAY_DATE":null,"ELEMENT_SET_NO":"999","EPOCH":"2021-11-14T16:49:23.838240","PERIAPSIS":"546.426","OBJECT_TYPE":"PAYLOAD","ECCENTRICITY":"0.00011660","TIME_SYSTEM":"UTC","CLASSIFICATION_TYPE":"U","BSTAR":"-0.00000611910000","NORAD_CAT_ID":"48098","OBJECT_NAME":"STARLINK-2421","INCLINATION":"53.0576","MEAN_ANOMALY":"289.8999","TLE_LINE1":"1 48098U 21027G   21318.70097035 -.00000372  00000-0 -61191-5 0  9994","EPHEMERIS_TYPE":"0","RCS_SIZE":"LARGE","OBJECT_ID":"2021-027G","MEAN_MOTION":"15.06393355","REF_FRAME":"TEME","MEAN_MOTION_DDOT":"0.0000000000000","SEMIMAJOR_AXIS":"6925.369","RA_OF_ASC_NODE":"36.5086","MEAN_MOTION_DOT":"-0.00000372","GP_ID":"189773297","CENTER_NAME":"EARTH","REV_AT_EPOCH":"3501","ARG_OF_PERICENTER":"70.2116","LAUNCH_DATE":"2021-04-07","PERIOD":"95.593","SITE":"AFETR","TLE_LINE2":"2 48098  53.0576  36.5086 0001166  70.2116 289.8999 15.06393355 35019","APOAPSIS":"548.041"},{"EPHEMERIS_TYPE":"0","RCS_SIZE":"LARGE","MEAN_MOTION":"15.06392041","OBJECT_ID":"2021-027H","REF_FRAME":"TEME","MEAN_MOTION_DDOT":"0.0000000000000","SEMIMAJOR_AXIS":"6925.373","RA_OF_ASC_NODE":"46.2523","MEAN_MOTION_DOT":"-0.00000390","GP_ID":"189773547","CENTER_NAME":"EARTH","REV_AT_EPOCH":"3488","ARG_OF_PERICENTER":"78.2565","LAUNCH_DATE":"2021-04-07","PERIOD":"95.593","SITE":"AFETR","TLE_LINE2":"2 48099  53.0571  46.2523 0001099  78.2565 281.8547 15.06392041 34886","APOAPSIS":"547.999","MEAN_ELEMENT_THEORY":"SGP4","COUNTRY_CODE":"US","FILE":"3215179","DECAY_DATE":null,"ELEMENT_SET_NO":"999","EPOCH":"2021-11-14T18:07:41.339712","PERIAPSIS":"546.477","ECCENTRICITY":"0.00010990","OBJECT_TYPE":"PAYLOAD","TIME_SYSTEM":"UTC","BSTAR":"-0.00000727240000","CLASSIFICATION_TYPE":"U","NORAD_CAT_ID":"48099","OBJECT_NAME":"STARLINK-2428","INCLINATION":"53.0571","MEAN_ANOMALY":"281.8547","TLE_LINE1":"1 48099U 21027H   21318.75533958 -.00000390  00000-0 -72724-5 0  9993"},{"RCS_SIZE":"LARGE","OBJECT_ID":"2021-027J","MEAN_MOTION":"15.06393790","EPHEMERIS_TYPE":"0","REF_FRAME":"TEME","MEAN_MOTION_DDOT":"0.0000000000000","SEMIMAJOR_AXIS":"6925.368","CENTER_NAME":"EARTH","MEAN_MOTION_DOT":"0.00001573","RA_OF_ASC_NODE":"25.5495","GP_ID":"189774299","ARG_OF_PERICENTER":"68.5015","REV_AT_EPOCH":"3519","PERIOD":"95.593","LAUNCH_DATE":"2021-04-07","SITE":"AFETR","APOAPSIS":"548.197","TLE_LINE2":"2 48100  53.0560  25.5495 0001392  68.5015 291.6122 15.06393790 35198","FILE":"3215179","DECAY_DATE":null,"MEAN_ELEMENT_THEORY":"SGP4","COUNTRY_CODE":"US","ELEMENT_SET_NO":"999","PERIAPSIS":"546.269","EPOCH":"2021-11-14T21:58:35.185728","TIME_SYSTEM":"UTC","OBJECT_TYPE":"PAYLOAD","ECCENTRICITY":"0.00013920","NORAD_CAT_ID":"48100","BSTAR":"0.00012449000000","CLASSIFICATION_TYPE":"U","MEAN_ANOMALY":"291.6122","INCLINATION":"53.0560","OBJECT_NAME":"STARLINK-2430","TLE_LINE1":"1 48100U 21027J   21318.91568502  .00001573  00000-0  12449-3 0  9995"}];
